0 SL-3 R/B
1 07275U 74025B   13283.19581875  .00000234  00000-0  13179-3 0  8206
2 07275 081.2451 177.9395 0056746 064.4311 043.3895 14.06424455 24106
0 SL-3 R/B
1 07275U 74025B   13286.19587057  .00000185  00000-0  10265-3 0  8227
2 07275 081.2449 175.0374 0056768 056.2691 112.7628 14.06425953 24528
0 SL-3 R/B
1 07275U 74025B   13287.32806443  .00000166  00000-0  91227-4 0  8234
2 07275 081.2447 173.9422 0056741 053.1724 085.1227 14.06426628 24686
0 SL-3 R/B
1 07275U 74025B   13288.39263457  .00000146  00000-0  79764-4 0  8245
2 07275 081.2445 172.9124 0056709 050.2631 075.0992 14.06427307 24830
0 SL-3 R/B
1 07275U 74025B   13289.80499008  .00000081  00000-0  40854-4 0  8252
2 07275 081.2442 171.5461 0056675 046.4249 025.9138 14.06428183 25032
0 SL-3 R/B
1 07275U 74025B   13291.17647220  .00000028  00000-0  88997-5 0  8269
2 07275 081.2438 170.2193 0056645 042.7106 129.7753 14.06428835 25224
0 SL-3 R/B
1 07275U 74025B   13292.37567139 -.00000010  00000-0 -13464-4 0  8272
2 07275 081.2436 169.0591 0056601 039.4323 081.3960 14.06429250 25399
0 SL-3 R/B
1 07275U 74025B   13293.78808803 -.00000042  00000-0 -32702-4 0  8286
2 07275 081.2435 167.6926 0056542 035.5613 032.5623 14.06429631 25596
0 SL-3 R/B
1 07275U 74025B   13294.85643573 -.00000061  00000-0 -43739-4 0  8290
2 07275 081.2434 166.6590 0056508 032.6203 041.6974 14.06429760 25746
0 SL-3 R/B
1 07275U 74025B   13296.15300932 -.00000077  00000-0 -53299-4 0  8305
2 07275 081.2432 165.4046 0056455 029.0480 126.3628 14.06429795 25920
